start=new Date('2023-02-20T00:00:00.000Z').valueOf();
sats=[{"GP_ID":"226059148","OBJECT_ID":"2022-141W","RA_OF_ASC_NODE":"324.6584","PERIOD":"95.438","REV_AT_EPOCH":"1769","PERIAPSIS":"538.702","ELEMENT_SET_NO":"999","MEAN_MOTION_DOT":"0.00002703","LAUNCH_DATE":"2022-10-28","EPOCH":"2023-02-19T18:20:21.643296","MEAN_MOTION":"15.08840215","ARG_OF_PERICENTER":"80.4049","TIME_SYSTEM":"UTC","MEAN_ANOMALY":"279.7113","BSTAR":"0.00018788000000","REF_FRAME":"TEME","NORAD_CAT_ID":"54177","FILE":"3812004","RCS_SIZE":"LARGE","EPHEMERIS_TYPE":"0","ECCENTRICITY":"0.00015070","APOAPSIS":"540.787","MEAN_MOTION_DDOT":"0.0000000000000","COUNTRY_CODE":"US","CLASSIFICATION_TYPE":"U","SEMIMAJOR_AXIS":"6917.880","SITE":"AFWTR","CENTER_NAME":"EARTH","OBJECT_NAME":"STARLINK-5186","INCLINATION":"53.2175","MEAN_ELEMENT_THEORY":"SGP4","DECAY_DATE":null,"TLE_LINE2":"2 54177  53.2175 324.6584 0001507  80.4049 279.7113 15.08840215 17696","OBJECT_TYPE":"PAYLOAD","TLE_LINE1":"1 54177U 22141W   23050.76413939  .00002703  00000-0  18788-3 0  9993"},{"PERIAPSIS":"543.972","ELEMENT_SET_NO":"999","REV_AT_EPOCH":"1765","MEAN_MOTION_DOT":"0.00001497","OBJECT_ID":"2022-141X","RA_OF_ASC_NODE":"325.6396","PERIOD":"95.541","GP_ID":"226048800","MEAN_ANOMALY":"308.7818","BSTAR":"0.00011695000000","TIME_SYSTEM":"UTC","ARG_OF_PERICENTER":"51.3275","LAUNCH_DATE":"2022-10-28","EPOCH":"2023-02-19T11:15:39.738816","MEAN_MOTION":"15.07203144","MEAN_MOTION_DDOT":"0.0000000000000","COUNTRY_CODE":"US","ECCENTRICITY":"0.00011290","APOAPSIS":"545.535","NORAD_CAT_ID":"54178","REF_FRAME":"TEME","FILE":"3811610","RCS_SIZE":"LARGE","EPHEMERIS_TYPE":"0","DECAY_DATE":null,"TLE_LINE2":"2 54178  53.2188 325.6396 0001129  51.3275 308.7818 15.07203144 17655","TLE_LINE1":"1 54178U 22141X   23050.46920994  .00001497  00000-0  11695-3 0  9994","OBJECT_TYPE":"PAYLOAD","OBJECT_NAME":"STARLINK-5164","MEAN_ELEMENT_THEORY":"SGP4","INCLINATION":"53.2188","CENTER_NAME":"EARTH","SITE":"AFWTR","CLASSIFICATION_TYPE":"U","SEMIMAJOR_AXIS":"6922.888"},{"SEMIMAJOR_AXIS":"6917.877","CLASSIFICATION_TYPE":"U","SITE":"AFWTR","CENTER_NAME":"EARTH","INCLINATION":"53.2168","MEAN_ELEMENT_THEORY":"SGP4","OBJECT_NAME":"STARLINK-5122","TLE_LINE1":"1 54179U 22141Y   23050.76045887  .00000510  00000-0  50156-4 0  9998","OBJECT_TYPE":"PAYLOAD","TLE_LINE2":"2 54179  53.2168 324.6324 0001615  79.2797 280.8377 15.08841012 17925","DECAY_DATE":null,"EPHEMERIS_TYPE":"0","RCS_SIZE":"LARGE","FILE":"3811838","REF_FRAME":"TEME","NORAD_CAT_ID":"54179","APOAPSIS":"540.860","ECCENTRICITY":"0.00016150","COUNTRY_CODE":"US","MEAN_MOTION_DDOT":"0.0000000000000","MEAN_MOTION":"15.08841012","EPOCH":"2023-02-19T18:15:03.646368","LAUNCH_DATE":"2022-10-28","ARG_OF_PERICENTER":"79.2797","TIME_SYSTEM":"UTC","BSTAR":"0.00005015600000","MEAN_ANOMALY":"280.8377","GP_ID":"226054993","PERIOD":"95.437","RA_OF_ASC_NODE":"324.6324","OBJECT_ID":"2022-141Y","MEAN_MOTION_DOT":"0.00000510","ELEMENT_SET_NO":"999","PERIAPSIS":"538.625","REV_AT_EPOCH":"1792"},{"MEAN_MOTION_DOT":"0.00012977","ELEMENT_SET_NO":"999","PERIAPSIS":"539.075","REV_AT_EPOCH":"1765","RA_OF_ASC_NODE":"325.6884","PERIOD":"95.435","OBJECT_ID":"2022-141Z","GP_ID":"226049302","BSTAR":"0.00083117000000","MEAN_ANOMALY":"272.3756","TIME_SYSTEM":"UTC","ARG_OF_PERICENTER":"87.7330","MEAN_MOTION":"15.08872918","EPOCH":"2023-02-19T11:21:40.246272","LAUNCH_DATE":"2022-10-28","COUNTRY_CODE":"US","MEAN_MOTION_DDOT":"0.0000000000000","APOAPSIS":"540.214","ECCENTRICITY":"0.00008230","EPHEMERIS_TYPE":"0","FILE":"3811610","RCS_SIZE":"LARGE","NORAD_CAT_ID":"54180","REF_FRAME":"TEME","OBJECT_TYPE":"PAYLOAD","TLE_LINE1":"1 54180U 22141Z   23050.47338248  .00012977  00000-0  83117-3 0  9996","TLE_LINE2":"2 54180  53.2179 325.6884 0000823  87.7330 272.3756 15.08872918 17654","DECAY_DATE":null,"INCLINATION":"53.2179","MEAN_ELEMENT_THEORY":"SGP4","OBJECT_NAME":"STARLINK-5228","CENTER_NAME":"EARTH","SITE":"AFWTR","SEMIMAJOR_AXIS":"6917.780","CLASSIFICATION_TYPE":"U"},{"MEAN_MOTION":"15.08861302","LAUNCH_DATE":"2022-10-28","EPOCH":"2023-02-19T17:59:08.272320","ARG_OF_PERICENTER":"81.6036","TIME_SYSTEM":"UTC","MEAN_ANOMALY":"278.5159","BSTAR":"0.00039559000000","GP_ID":"226055032","RA_OF_ASC_NODE":"324.5704","PERIOD":"95.436","OBJECT_ID":"2022-141AA","REV_AT_EPOCH":"1792","PERIAPSIS":"538.445","ELEMENT_SET_NO":"999","MEAN_MOTION_DOT":"0.00006017","SEMIMAJOR_AXIS":"6917.815","CLASSIFICATION_TYPE":"U","CENTER_NAME":"EARTH","SITE":"AFWTR","OBJECT_NAME":"STARLINK-5227","INCLINATION":"53.2173","MEAN_ELEMENT_THEORY":"SGP4","TLE_LINE1":"1 54181U 22141AA  23050.74940130  .00006017  00000-0  39559-3 0  9995","OBJECT_TYPE":"PAYLOAD","DECAY_DATE":null,"TLE_LINE2":"2 54181  53.2173 324.5704 0001786  81.6036 278.5159 15.08861302 17923","EPHEMERIS_TYPE":"0","NORAD_CAT_ID":"54181","REF_FRAME":"TEME","FILE":"3811855","RCS_SIZE":"LARGE","APOAPSIS":"540.916","ECCENTRICITY":"0.00017860","COUNTRY_CODE":"US","MEAN_MOTION_DDOT":"0.0000000000000"},{"SEMIMAJOR_AXIS":"6778.517","CLASSIFICATION_TYPE":"U","SITE":"AFWTR","CENTER_NAME":"EARTH","INCLINATION":"53.2144","MEAN_ELEMENT_THEORY":"SGP4","OBJECT_NAME":"STARLINK-5231","OBJECT_TYPE":"PAYLOAD","TLE_LINE1":"1 54182U 22141AB  23050.91667824 -.01150073  00000-0 -18274-1 0  9995","TLE_LINE2":"2 54182  53.2144 297.6372 0001004  83.6713 358.4990 15.55610075 18316","DECAY_DATE":null,"EPHEMERIS_TYPE":"0","RCS_SIZE":"LARGE","FILE":"3811841","NORAD_CAT_ID":"54182","REF_FRAME":"TEME","APOAPSIS":"401.062","ECCENTRICITY":"0.00010040","COUNTRY_CODE":"US","MEAN_MOTION_DDOT":"0.0000000000000","MEAN_MOTION":"15.55610075","EPOCH":"2023-02-19T22:00:00.999936","LAUNCH_DATE":"2022-10-28","ARG_OF_PERICENTER":"83.6713","TIME_SYSTEM":"UTC","BSTAR":"-0.01827400000000","MEAN_ANOMALY":"358.4990","GP_ID":"226055037","PERIOD":"92.568","RA_OF_ASC_NODE":"297.6372","OBJECT_ID":"2022-141AB","MEAN_MOTION_DOT":"-0.01150073","ELEMENT_SET_NO":"999","PERIAPSIS":"399.701","REV_AT_EPOCH":"1831"},{"COUNTRY_CODE":"US","MEAN_MOTION_DDOT":"0.0000000000000","EPHEMERIS_TYPE":"0","FILE":"3811841","RCS_SIZE":"LARGE","NORAD_CAT_ID":"54183","REF_FRAME":"TEME","APOAPSIS":"540.928","ECCENTRICITY":"0.00017810","MEAN_ELEMENT_THEORY":"SGP4","INCLINATION":"53.2183","OBJECT_NAME":"STARLINK-5239","OBJECT_TYPE":"PAYLOAD","TLE_LINE1":"1 54183U 22141AC  23050.74203496  .00003294  00000-0  22485-3 0  9998","TLE_LINE2":"2 54183  53.2183 324.5210 0001781  97.4833 262.6362 15.08856077 17926","DECAY_DATE":null,"SEMIMAJOR_AXIS":"6917.831","CLASSIFICATION_TYPE":"U","CENTER_NAME":"EARTH","SITE":"AFWTR","RA_OF_ASC_NODE":"324.5210","PERIOD":"95.437","OBJECT_ID":"2022-141AC","MEAN_MOTION_DOT":"0.00003294","PERIAPSIS":"538.464","REV_AT_EPOCH":"1792","ELEMENT_SET_NO":"999","GP_ID":"226055458","TIME_SYSTEM":"UTC","BSTAR":"0.00022485000000","MEAN_ANOMALY":"262.6362","MEAN_MOTION":"15.08856077","EPOCH":"2023-02-19T17:48:31.820544","LAUNCH_DATE":"2022-10-28","ARG_OF_PERICENTER":"97.4833"},{"GP_ID":"226055043","OBJECT_ID":"2022-141AD","PERIOD":"95.437","RA_OF_ASC_NODE":"326.8533","MEAN_MOTION_DOT":"0.00005808","PERIAPSIS":"539.157","REV_AT_EPOCH":"1784","ELEMENT_SET_NO":"999","EPOCH":"2023-02-19T04:54:48.692736","LAUNCH_DATE":"2022-10-28","MEAN_MOTION":"15.08841832","ARG_OF_PERICENTER":"131.4050","TIME_SYSTEM":"UTC","BSTAR":"0.00038269000000","MEAN_ANOMALY":"228.7015","FILE":"3811841","RCS_SIZE":"LARGE","REF_FRAME":"TEME","NORAD_CAT_ID":"54184","EPHEMERIS_TYPE":"0","ECCENTRICITY":"0.00008420","APOAPSIS":"540.322","MEAN_MOTION_DDOT":"0.0000000000000","COUNTRY_CODE":"US","CLASSIFICATION_TYPE":"U","SEMIMAJOR_AXIS":"6917.875","CENTER_NAME":"EARTH","SITE":"AFWTR","MEAN_ELEMENT_THEORY":"SGP4","INCLINATION":"53.2185","OBJECT_NAME":"STARLINK-5162","TLE_LINE2":"2 54184  53.2185 326.8533 0000842 131.4050 228.7015 15.08841832 17841","DECAY_DATE":null,"TLE_LINE1":"1 54184U 22141AD  23050.20473024  .00005808  00000-0  38269-3 0  9996","OBJECT_TYPE":"PAYLOAD"},{"CLASSIFICATION_TYPE":"U","SEMIMAJOR_AXIS":"6917.781","SITE":"AFWTR","CENTER_NAME":"EARTH","INCLINATION":"53.2173","MEAN_ELEMENT_THEORY":"SGP4","OBJECT_NAME":"STARLINK-5235","TLE_LINE2":"2 54185  53.2173 324.5450 0001540  97.4419 262.6748 15.08872634 17921","DECAY_DATE":null,"TLE_LINE1":"1 54185U 22141AE  23050.74571630  .00021892  00000-0  13881-2 0  9991","OBJECT_TYPE":"PAYLOAD","RCS_SIZE":"LARGE","FILE":"3811841","NORAD_CAT_ID":"54185","REF_FRAME":"TEME","EPHEMERIS_TYPE":"0","ECCENTRICITY":"0.00015400","APOAPSIS":"540.711","MEAN_MOTION_DDOT":"0.0000000000000","COUNTRY_CODE":"US","EPOCH":"2023-02-19T17:53:49.888320","LAUNCH_DATE":"2022-10-28","MEAN_MOTION":"15.08872634","ARG_OF_PERICENTER":"97.4419","TIME_SYSTEM":"UTC","BSTAR":"0.00138810000000","MEAN_ANOMALY":"262.6748","GP_ID":"226055471","OBJECT_ID":"2022-141AE","RA_OF_ASC_NODE":"324.5450","PERIOD":"95.435","MEAN_MOTION_DOT":"0.00021892","PERIAPSIS":"538.580","REV_AT_EPOCH":"1792","ELEMENT_SET_NO":"999"},{"ECCENTRICITY":"0.00009770","APOAPSIS":"540.470","REF_FRAME":"TEME","NORAD_CAT_ID":"54186","FILE":"3812615","RCS_SIZE":"LARGE","EPHEMERIS_TYPE":"0","MEAN_MOTION_DDOT":"0.0000000000000","COUNTRY_CODE":"US","SITE":"AFWTR","CENTER_NAME":"EARTH","CLASSIFICATION_TYPE":"U","SEMIMAJOR_AXIS":"6917.929","DECAY_DATE":null,"TLE_LINE2":"2 54186  53.2172 314.2270 0000977  91.9753 268.1351 15.08824197 18080","OBJECT_TYPE":"PAYLOAD","TLE_LINE1":"1 54186U 22141AF  23050.91966617  .00001643  00000-0  12135-3 0  9998","OBJECT_NAME":"STARLINK-5194","INCLINATION":"53.2172","MEAN_ELEMENT_THEORY":"SGP4","GP_ID":"226069371","PERIAPSIS":"539.118","REV_AT_EPOCH":"1808","ELEMENT_SET_NO":"999","MEAN_MOTION_DOT":"0.00001643","OBJECT_ID":"2022-141AF","RA_OF_ASC_NODE":"314.2270","PERIOD":"95.439","ARG_OF_PERICENTER":"91.9753","LAUNCH_DATE":"2022-10-28","EPOCH":"2023-02-19T22:04:19.157088","MEAN_MOTION":"15.08824197","MEAN_ANOMALY":"268.1351","BSTAR":"0.00012135000000","TIME_SYSTEM":"UTC"}];
